{"type": "FeatureCollection", "features": [ {"type": "Feature", "properties": {"norad_id": 34833, "name": "IRIDIUM 33 DEB", "group": "iridium-33-debris", "lat": 65.98586402478267, "lon": 59.276527104215326, "alt_km": 698.6046151477785, "timestamp": "2025-12-12T09:49:09.117240+00:00", "meta": {"OBJECT_NAME": "IRIDIUM 33 DEB", "OBJECT_ID": "1997-051MH", "EPOCH": "2025-12-12T04:48:08.627040", "MEAN_MOTION": 14.52373802, "ECCENTRICITY": 0.002181, "INCLINATION": 86.3925, "RA_OF_ASC_NODE": 51.226, "ARG_OF_PERICENTER": 100.2629, "MEAN_ANOMALY": 313.9215, "EPHEMERIS_TYPE": 0, "CLASSIFICATION_TYPE": "U", "NORAD_CAT_ID": 34833, "ELEMENT_SET_NO": 999, "REV_AT_EPOCH": 87707, "BSTAR": 0.0012458, "MEAN_MOTION_DOT": 5.107e-05, "MEAN_MOTION_DDOT": 0}, "tle": {"line1": "1 34833U 97051MH  25346.20009985  .00005107  00000+0  12458-2 0  9990", "line2": "2 34833  86.3925  51.2260 0021810 100.2629 313.9215 14.52373802877072"}}, "geometry": {"type": "Point", "coordinates": [59.276527104215326, 65.98586402478267]}}, {"type": "Feature", "properties": {"norad_id": 34870, "name": "IRIDIUM 33 DEB", "group": "iridium-33-debris", "lat": 9.725438801933166, "lon": -45.13093373892972, "alt_km": 653.6206757144182, "timestamp": "2025-12-12T09:49:09.117251+00:00", "meta": {"OBJECT_NAME": "IRIDIUM 33 DEB", "OBJECT_ID": "1997-051MQ", "EPOCH": "2025-12-11T22:40:34.202784", "MEAN_MOTION": 14.76406181, "ECCENTRICITY": 0.0016076, "INCLINATION": 86.3105, "RA_OF_ASC_NODE": 314.448, "ARG_OF_PERICENTER": 185.3873, "MEAN_ANOMALY": 238.3569, "EPHEMERIS_TYPE": 0, "CLASSIFICATION_TYPE": "U", "NORAD_CAT_ID": 34870, "ELEMENT_SET_NO": 999, "REV_AT_EPOCH": 88899, "BSTAR": 0.0023141, "MEAN_MOTION_DOT": 0.00016159, "MEAN_MOTION_DDOT": 0}, "tle": {"line1": "1 34870U 97051MQ  25345.94484031  .00016159  00000+0  23141-2 0  9990", "line2": "2 34870  86.3105 314.4480 0016076 185.3873 238.3569 14.76406181888992"}}, "geometry": {"type": "Point", "coordinates": [-45.13093373892972, 9.725438801933166]}}, {"type": "Feature", "properties": {"norad_id": 34896, "name": "IRIDIUM 33 DEB", "group": "iridium-33-debris", "lat": -43.1071176144132, "lon": 150.2787528818859, "alt_km": 662.7894662182853, "timestamp": "2025-12-12T09:49:09.117261+00:00", "meta": {"OBJECT_NAME": "IRIDIUM 33 DEB", "OBJECT_ID": "1997-051MY", "EPOCH": "2025-12-11T06:54:08.257248", "MEAN_MOTION": 14.66256347, "ECCENTRICITY": 0.00241983, "INCLINATION": 86.3294, "RA_OF_ASC_NODE": 327.3367, "ARG_OF_PERICENTER": 219.9786, "MEAN_ANOMALY": 206.8534, "EPHEMERIS_TYPE": 0, "CLASSIFICATION_TYPE": "U", "NORAD_CAT_ID": 34896, "ELEMENT_SET_NO": 999, "REV_AT_EPOCH": 87598, "BSTAR": 0.0017967326, "MEAN_MOTION_DOT": 9.969e-05, "MEAN_MOTION_DDOT": 0}, "tle": {"line1": "1 34896U 97051MY  25345.28759557  .00009969  00000+0  17967-2 0  9993", "line2": "2 34896  86.3294 327.3367 0024198 219.9786 206.8534 14.66256347875980"}}, "geometry": {"type": "Point", "coordinates": [150.2787528818859, -43.1071176144132]}}, {"type": "Feature", "properties": {"norad_id": 34926, "name": "IRIDIUM 33 DEB", "group": "iridium-33-debris", "lat": -35.85305288607354, "lon": 5.6246472951871125, "alt_km": 671.4237025223883, "timestamp": "2025-12-12T09:49:09.117272+00:00", "meta": {"OBJECT_NAME": "IRIDIUM 33 DEB", "OBJECT_ID": "1997-051NF", "EPOCH": "2025-12-11T19:22:10.619040", "MEAN_MOTION": 14.54346009, "ECCENTRICITY": 0.00754631, "INCLINATION": 86.1327, "RA_OF_ASC_NODE": 8.7055, "ARG_OF_PERICENTER": 295.9766, "MEAN_ANOMALY": 117.5242, "EPHEMERIS_TYPE": 0, "CLASSIFICATION_TYPE": "U", "NORAD_CAT_ID": 34926, "ELEMENT_SET_NO": 999, "REV_AT_EPOCH": 86443, "BSTAR": 0.0073698942, "MEAN_MOTION_DOT": 0.00032638, "MEAN_MOTION_DDOT": 0}, "tle": {"line1": "1 34926U 97051NF  25345.80706735  .00032638  00000+0  73699-2 0  9998", "line2": "2 34926  86.1327   8.7055 0075463 295.9766 117.5242 14.54346009864430"}}, "geometry": {"type": "Point", "coordinates": [5.6246472951871125, -35.85305288607354]}}, {"type": "Feature", "properties": {"norad_id": 34985, "name": "IRIDIUM 33 DEB", "group": "iridium-33-debris", "lat": 76.22387694721102, "lon": -137.98725341265552, "alt_km": 751.6450386708675, "timestamp": "2025-12-12T09:49:09.117282+00:00", "meta": {"OBJECT_NAME": "IRIDIUM 33 DEB", "OBJECT_ID": "1997-051NR", "EPOCH": "2025-12-12T04:28:48.219744", "MEAN_MOTION": 14.42006699, "ECCENTRICITY": 0.0020709, "INCLINATION": 86.3696, "RA_OF_ASC_NODE": 57.1151, "ARG_OF_PERICENTER": 221.9104, "MEAN_ANOMALY": 167.4455, "EPHEMERIS_TYPE": 0, "CLASSIFICATION_TYPE": "U", "NORAD_CAT_ID": 34985, "ELEMENT_SET_NO": 999, "REV_AT_EPOCH": 87167, "BSTAR": 0.0010803, "MEAN_MOTION_DOT": 3.571e-05, "MEAN_MOTION_DDOT": 0}, "tle": {"line1": "1 34985U 97051NR  25346.18666921  .00003571  00000+0  10803-2 0  9999", "line2": "2 34985  86.3696  57.1151 0020709 221.9104 167.4455 14.42006699871678"}}, "geometry": {"type": "Point", "coordinates": [-137.98725341265552, 76.22387694721102]}}, {"type": "Feature", "properties": {"norad_id": 35051, "name": "IRIDIUM 33 DEB", "group": "iridium-33-debris", "lat": 29.315656189422036, "lon": 11.074766887481372, "alt_km": 728.6009543919363, "timestamp": "2025-12-12T09:49:09.117293+00:00", "meta": {"OBJECT_NAME": "IRIDIUM 33 DEB", "OBJECT_ID": "1997-051NX", "EPOCH": "2025-12-11T08:47:57.045408", "MEAN_MOTION": 14.47588957, "ECCENTRICITY": 0.00106566, "INCLINATION": 86.3243, "RA_OF_ASC_NODE": 9.4603, "ARG_OF_PERICENTER": 94.8899, "MEAN_ANOMALY": 265.3522, "EPHEMERIS_TYPE": 0, "CLASSIFICATION_TYPE": "U", "NORAD_CAT_ID": 35051, "ELEMENT_SET_NO": 999, "REV_AT_EPOCH": 86976, "BSTAR": 0.001042299, "MEAN_MOTION_DOT": 3.858e-05, "MEAN_MOTION_DDOT": 0}, "tle": {"line1": "1 35051U 97051NX  25345.36663247  .00003858  00000+0  10423-2 0  9997", "line2": "2 35051  86.3243   9.4603 0010656  94.8899 265.3522 14.47588957869768"}}, "geometry": {"type": "Point", "coordinates": [11.074766887481372, 29.315656189422036]}}, {"type": "Feature", "properties": {"norad_id": 35052, "name": "IRIDIUM 33 DEB", "group": "iridium-33-debris", "lat": -9.822151696283118, "lon": -158.74520487932003, "alt_km": 770.1071729611258, "timestamp": "2025-12-12T09:49:09.117303+00:00", "meta": {"OBJECT_NAME": "IRIDIUM 33 DEB", "OBJECT_ID": "1997-051NY", "EPOCH": "2025-12-11T12:54:27.641952", "MEAN_MOTION": 14.38490165, "ECCENTRICITY": 0.00136793, "INCLINATION": 86.3312, "RA_OF_ASC_NODE": 20.9917, "ARG_OF_PERICENTER": 88.4217, "MEAN_ANOMALY": 271.8548, "EPHEMERIS_TYPE": 0, "CLASSIFICATION_TYPE": "U", "NORAD_CAT_ID": 35052, "ELEMENT_SET_NO": 999, "REV_AT_EPOCH": 87258, "BSTAR": 0.00027419057, "MEAN_MOTION_DOT": 8.58e-06, "MEAN_MOTION_DDOT": 0}, "tle": {"line1": "1 35052U 97051NY  25345.53781993  .00000858  00000+0  27419-3 0  9997", "line2": "2 35052  86.3312  20.9917 0013679  88.4217 271.8548 14.38490165872580"}}, "geometry": {"type": "Point", "coordinates": [-158.74520487932003, -9.822151696283118]}}, {"type": "Feature", "properties": {"norad_id": 35080, "name": "IRIDIUM 33 DEB", "group": "iridium-33-debris", "lat": -51.46559455210562, "lon": 47.75532690564979, "alt_km": 643.0101156034852, "timestamp": "2025-12-12T09:49:09.117313+00:00", "meta": {"OBJECT_NAME": "IRIDIUM 33 DEB", "OBJECT_ID": "1997-051PF", "EPOCH": "2025-12-12T03:35:19.906944", "MEAN_MOTION": 14.85960238, "ECCENTRICITY": 0.006047, "INCLINATION": 86.207, "RA_OF_ASC_NODE": 52.6577, "ARG_OF_PERICENTER": 181.932, "MEAN_ANOMALY": 178.1681, "EPHEMERIS_TYPE": 0, "CLASSIFICATION_TYPE": "U", "NORAD_CAT_ID": 35080, "ELEMENT_SET_NO": 999, "REV_AT_EPOCH": 69679, "BSTAR": 0.0091734, "MEAN_MOTION_DOT": 0.00083628, "MEAN_MOTION_DDOT": 0}, "tle": {"line1": "1 35080U 97051PF  25346.14953596  .00083628  00000+0  91734-2 0  9992", "line2": "2 35080  86.2070  52.6577 0060470 181.9320 178.1681 14.85960238696799"}}, "geometry": {"type": "Point", "coordinates": [47.75532690564979, -51.46559455210562]}}, {"type": "Feature", "properties": {"norad_id": 35297, "name": "IRIDIUM 33 DEB", "group": "iridium-33-debris", "lat": 86.08922126450364, "lon": 130.46887254572792, "alt_km": 726.4627451344431, "timestamp": "2025-12-12T09:49:09.117323+00:00", "meta": {"OBJECT_NAME": "IRIDIUM 33 DEB", "OBJECT_ID": "1997-051PM", "EPOCH": "2025-12-06T00:31:29.302752", "MEAN_MOTION": 14.45108459, "ECCENTRICITY": 0.00170329, "INCLINATION": 86.3867, "RA_OF_ASC_NODE": 65.6268, "ARG_OF_PERICENTER": 161.2449, "MEAN_ANOMALY": 198.9384, "EPHEMERIS_TYPE": 0, "CLASSIFICATION_TYPE": "U", "NORAD_CAT_ID": 35297, "ELEMENT_SET_NO": 999, "REV_AT_EPOCH": 70329, "BSTAR": 0.0012426888, "MEAN_MOTION_DOT": 4.371e-05, "MEAN_MOTION_DDOT": 0}, "tle": {"line1": "1 35297U 97051PM  25340.02186693  .00004371  00000+0  12427-2 0  9999", "line2": "2 35297  86.3867  65.6268 0017032 161.2449 198.9384 14.45108459703293"}}, "geometry": {"type": "Point", "coordinates": [130.46887254572792, 86.08922126450364]}}, {"type": "Feature", "properties": {"norad_id": 35299, "name": "IRIDIUM 33 DEB", "group": "iridium-33-debris", "lat": 25.691090717968795, "lon": 35.11964041708818, "alt_km": 745.5612142066893, "timestamp": "2025-12-12T09:49:09.117334+00:00", "meta": {"OBJECT_NAME": "IRIDIUM 33 DEB", "OBJECT_ID": "1997-051PP", "EPOCH": "2025-12-11T14:23:51.968256", "MEAN_MOTION": 14.40851716, "ECCENTRICITY": 0.00589419, "INCLINATION": 86.2884, "RA_OF_ASC_NODE": 33.6823, "ARG_OF_PERICENTER": 106.0138, "MEAN_ANOMALY": 45.6441, "EPHEMERIS_TYPE": 0, "CLASSIFICATION_TYPE": "U", "NORAD_CAT_ID": 35299, "ELEMENT_SET_NO": 999, "REV_AT_EPOCH": 86314, "BSTAR": 0.0011895321, "MEAN_MOTION_DOT": 3.91e-05, "MEAN_MOTION_DDOT": 0}, "tle": {"line1": "1 35299U 97051PP  25345.59990704  .00003910  00000+0  11895-2 0  9990", "line2": "2 35299  86.2884  33.6823 0058941 106.0138  45.6441 14.40851716863140"}}, "geometry": {"type": "Point", "coordinates": [35.11964041708818, 25.691090717968795]}}]}